NORAD_CAT_ID,OBJECT_NAME,OBJECT_TYPE,EPOCH,MEAN_MOTION,ECCENTRICITY,INCLINATION,RA_OF_ASC_NODE,ARG_OF_PERICENTER,MEAN_ANOMALY,BSTAR,MEAN_MOTION_DOT,MEAN_MOTION_DDOT,TLE_LINE0,TLE_LINE1,TLE_LINE2,SEMIMAJOR_AXIS,PERIOD,APOGEE,PERIGEE,DECAYED
52364.0,STARLINK-3820,PAYLOAD,2024-04-14 04:15:27,15.08841048,0.0001462,53.2178,66.8154,91.438,268.678,9.1364e-05,1.166e-05,0.0,0 STARLINK-3820,1 52364U 22045AK  24105.17740489  .00001166  00000-0  91364-4 0  9996,2 52364  53.2178  66.8154 0001462  91.4380 268.6780 15.08841048111072,6917.877,95.437,540.754,538.731,0.0
52364.0,STARLINK-3820,PAYLOAD,2024-04-15 04:06:14,15.08842463,0.0001436,53.2173,62.3547,109.4612,250.6536,9.34e-05,1.199e-05,0.0,0 STARLINK-3820,1 52364U 22045AK  24106.17100216  .00001199  00000-0  93400-4 0  9994,2 52364  53.2173  62.3547 0001436 109.4612 250.6536 15.08842463111222,6917.873,95.437,540.731,538.744,0.0
52364.0,STARLINK-3820,PAYLOAD,2024-04-15 20:00:05,15.08844043,0.0001375,53.2174,59.3818,106.5293,253.585,0.00011153,1.488e-05,0.0,0 STARLINK-3820,1 52364U 22045AK  24106.83340051  .00001488  00000-0  11153-3 0  9995,2 52364  53.2174  59.3818 0001375 106.5293 253.5850 15.08844043111323,6917.868,95.437,540.684,538.782,0.0
52364.0,STARLINK-3820,PAYLOAD,2024-04-16 05:32:25,15.08836487,0.000149,53.2191,57.5993,97.405,262.7111,5.5802e-06,-1.99e-06,0.0,0 STARLINK-3820,1 52364U 22045AK  24107.23084566 -.00000199  00000-0  55802-5 0  9996,2 52364  53.2191  57.5993 0001490  97.4050 262.7111 15.08836487111384,6917.891,95.438,540.787,538.725,0.0
52364.0,STARLINK-3820,PAYLOAD,2024-04-16 13:29:19,15.08860695,9.34e-05,53.2182,56.1118,84.2897,275.8201,0.00035699,5.401e-05,0.0,0 STARLINK-3820,1 52364U 22045AK  24107.56203133  .00005401  00000-0  35699-3 0  9995,2 52364  53.2182  56.1118 0000934  84.2897 275.8201 15.08860695111432,6917.817,95.436,540.328,539.036,0.0
52364.0,STARLINK-3820,PAYLOAD,2024-04-17 05:23:11,15.08858433,0.0001085,53.2176,53.1354,93.4965,266.6151,0.00034877,5.27e-05,0.0,0 STARLINK-3820,1 52364U 22045AK  24108.22443378  .00005270  00000-0  34877-3 0  9997,2 52364  53.2176  53.1354 0001085  93.4965 266.6151 15.08858433111530,6917.824,95.436,540.44,538.938,0.0
52364.0,STARLINK-3820,PAYLOAD,2024-04-18 03:38:36,15.08823511,0.0001475,53.2174,48.9731,81.9879,278.1281,-0.00011145,-2.06e-05,0.0,0 STARLINK-3820,1 52364U 22045AK  24109.15181555 -.00002060  00000-0 -11145-3 0  9995,2 52364  53.2174  48.9731 0001475  81.9879 278.1281 15.08823511111674,6917.931,95.439,540.816,538.775,0.0
52364.0,STARLINK-3820,PAYLOAD,2024-04-19 01:54:01,15.08839634,0.0001672,53.2175,44.8114,78.8846,281.2334,0.000453,6.929e-05,0.0,0 STARLINK-3820,1 52364U 22045AK  24110.07918184  .00006929  00000-0  45300-3 0  9990,2 52364  53.2175  44.8114 0001672  78.8846 281.2334 15.08839634111816,6917.882,95.438,540.903,538.59,0.0
52364.0,STARLINK-3820,PAYLOAD,2024-04-20 01:44:47,15.08877958,0.0001476,53.2162,40.3556,112.7084,247.4064,0.0011254,0.00017687,0.0,0 STARLINK-3820,1 52364U 22045AK  24111.07276765  .00017687  00000-0  11254-2 0  9996,2 52364  53.2162  40.3556 0001476 112.7084 247.4064 15.08877958111968,6917.764,95.435,540.65,538.608,0.0
52364.0,STARLINK-3820,PAYLOAD,2024-04-20 19:14:01,15.08867983,0.0001854,53.218,37.0885,88.526,271.5945,0.00042489,6.486e-05,0.0,0 STARLINK-3820,1 52364U 22045AK  24111.80140257  .00006486  00000-0  42489-3 0  9993,2 52364  53.2180  37.0885 0001854  88.5260 271.5945 15.08867983112078,6917.795,95.436,540.942,538.377,0.0
52364.0,STARLINK-3820,PAYLOAD,2024-04-21 01:35:33,15.08827837,0.0001145,53.2186,35.8887,95.8188,264.2935,-0.00073076,-0.00011895,0.0,0 STARLINK-3820,1 52364U 22045AK  24112.06636453 -.00011895  00000-0 -73076-3 0  9998,2 52364  53.2186  35.8887 0001145  95.8188 264.2935 15.08827837112112,6917.918,95.438,540.575,538.99,0.0
52364.0,STARLINK-3820,PAYLOAD,2024-04-21 04:46:20,15.08823191,0.0001002,53.2189,35.2941,113.5119,246.5978,-0.00014469,-2.589e-05,0.0,0 STARLINK-3820,1 52364U 22045AK  24112.19884775 -.00002589  00000-0 -14469-3 0  9995,2 52364  53.2189  35.2941 0001002 113.5119 246.5978 15.08823191112135,6917.932,95.439,540.49,539.104,0.0
52364.0,STARLINK-3820,PAYLOAD,2024-04-21 22:15:35,15.08831066,0.0001103,53.2184,32.0251,118.0893,242.0211,-6.1678e-05,-1.269e-05,0.0,0 STARLINK-3820,1 52364U 22045AK  24112.92749391 -.00001269  00000-0 -61678-4 0  9999,2 52364  53.2184  32.0251 0001103 118.0893 242.0211 15.08831066112243,6917.908,95.438,540.536,539.01,0.0
52364.0,STARLINK-3820,PAYLOAD,2024-04-22 04:37:07,15.08838354,0.0001294,53.2179,30.8334,130.3043,229.8062,0.00029282,4.375e-05,0.0,0 STARLINK-3820,1 52364U 22045AK  24113.19245363  .00004375  00000-0  29282-3 0  9992,2 52364  53.2179  30.8334 0001294 130.3043 229.8062 15.08838354112288,6917.885,95.438,540.646,538.855,0.0
52364.0,STARLINK-3820,PAYLOAD,2024-04-22 22:06:23,15.08833296,0.0001393,53.2184,27.5616,128.8455,231.2661,0.00019299,2.784e-05,0.0,0 STARLINK-3820,1 52364U 22045AK  24113.92110128  .00002784  00000-0  19299-3 0  9992,2 52364  53.2184  27.5616 0001393 128.8455 231.2661 15.08833296112393,6917.901,95.438,540.73,538.802,0.0
52364.0,STARLINK-3820,PAYLOAD,2024-04-23 04:27:56,15.08831575,8.55e-05,53.2186,26.3739,89.8548,270.2542,0.00021024,3.059e-05,0.0,0 STARLINK-3820,1 52364U 22045AK  24114.18606538  .00003059  00000-0  21024-3 0  9991,2 52364  53.2186  26.3739 0000855  89.8548 270.2542 15.08831575112433,6917.906,95.438,540.363,539.18,0.0
52364.0,STARLINK-3820,PAYLOAD,2024-04-23 21:57:10,15.08834801,8.21e-05,53.2182,23.103,97.3242,262.7844,0.00016187,2.289e-05,0.0,0 STARLINK-3820,1 52364U 22045AK  24114.91470685  .00002289  00000-0  16187-3 0  9992,2 52364  53.2182  23.1030 0000821  97.3242 262.7844 15.08834801112544,6917.896,95.438,540.329,539.193,0.0
52364.0,STARLINK-3820,PAYLOAD,2024-04-24 04:18:42,15.08849758,8.66e-05,53.2182,21.9117,74.1491,285.9597,0.00042393,6.467e-05,0.0,0 STARLINK-3820,1 52364U 22045AK  24115.17966248  .00006467  00000-0  42393-3 0  9996,2 52364  53.2182  21.9117 0000866  74.1491 285.9597 15.08849758112587,6917.851,95.437,540.315,539.116,0.0
52364.0,STARLINK-3820,PAYLOAD,2024-04-24 21:47:57,15.08838605,0.0001001,53.2176,18.64,91.4442,268.6664,0.00014211,1.975e-05,0.0,0 STARLINK-3820,1 52364U 22045AK  24115.90830846  .00001975  00000-0  14211-3 0  9998,2 52364  53.2176  18.6400 0001001  91.4442 268.6664 15.08838605112692,6917.885,95.438,540.442,539.057,0.0
52364.0,STARLINK-3820,PAYLOAD,2024-04-25 02:34:07,15.08844401,0.0001036,53.2192,17.7478,98.8343,261.2767,0.00027918,4.159e-05,0.0,0 STARLINK-3820,1 52364U 22045AK  24116.10702728  .00004159  00000-0  27918-3 0  9993,2 52364  53.2192  17.7478 0001036  98.8343 261.2767 15.08844401112722,6917.867,95.437,540.449,539.015,0.0
52364.0,STARLINK-3820,PAYLOAD,2024-04-25 21:38:44,15.08849983,0.0001032,53.2183,14.1789,116.3271,243.7827,0.00044077,6.736e-05,0.0,0 STARLINK-3820,1 52364U 22045AK  24116.90190452  .00006736  00000-0  44077-3 0  9994,2 52364  53.2183  14.1789 0001032 116.3271 243.7827 15.08849983112845,6917.85,95.437,540.429,539.001,0.0
52364.0,STARLINK-3820,PAYLOAD,2024-04-26 10:21:49,15.08864157,9.11e-05,53.218,11.8039,88.9304,271.1793,0.00063159,9.785e-05,0.0,0 STARLINK-3820,1 52364U 22045AK  24117.43181830  .00009785  00000-0  63159-3 0  9992,2 52364  53.2180  11.8039 0000911  88.9304 271.1793 15.08864157112926,6917.807,95.436,540.302,539.041,0.0
52364.0,STARLINK-3820,PAYLOAD,2024-04-26 23:04:54,15.0883731,8.2e-05,53.2172,9.4264,98.2039,261.9046,-9.7526e-05,-1.839e-05,0.0,0 STARLINK-3820,1 52364U 22045AK  24117.96174378 -.00001839  00000-0 -97526-4 0  9999,2 52364  53.2172   9.4264 0000820  98.2039 261.9046 15.08837310113007,6917.889,95.438,540.321,539.186,0.0
52364.0,STARLINK-3820,PAYLOAD,2024-04-27 10:12:35,15.088711,7.92e-05,53.2174,7.3433,81.3827,278.7255,0.0008097,0.00012633,0.0,0 STARLINK-3820,1 52364U 22045AK  24118.42541269  .00012633  00000-0  80970-3 0  9994,2 52364  53.2174   7.3433 0000792  81.3827 278.7255 15.08871100113070,6917.785,95.436,540.198,539.102,0.0
52364.0,STARLINK-3820,PAYLOAD,2024-04-27 21:20:18,15.08823409,0.0001386,53.2183,5.2641,70.014,290.1002,-0.00035933,-5.999e-05,0.0,0 STARLINK-3820,1 52364U 22045AK  24118.88910503 -.00005999  00000-0 -35933-3 0  9993,2 52364  53.2183   5.2641 0001386  70.0140 290.1002 15.08823409113146,6917.931,95.439,540.755,538.837,0.0
52364.0,STARLINK-3820,PAYLOAD,2024-04-27 22:55:41,15.08825932,0.0001297,53.2183,4.9655,82.1714,277.9425,-0.00023246,-3.984e-05,0.0,0 STARLINK-3820,1 52364U 22045AK  24118.95534480 -.00003984  00000-0 -23246-3 0  9993,2 52364  53.2183   4.9655 0001297  82.1714 277.9425 15.08825932113155,6917.923,95.438,540.686,538.891,0.0
52364.0,STARLINK-3820,PAYLOAD,2024-04-28 02:06:28,15.08829823,0.0001358,53.2184,4.37,82.0337,278.0809,3.4072e-05,2.54e-06,0.0,0 STARLINK-3820,1 52364U 22045AK  24119.08782627  .00000254  00000-0  34072-4 0  9991,2 52364  53.2184   4.3700 0001358  82.0337 278.0809 15.08829823113172,6917.911,95.438,540.716,538.837,0.0
52364.0,STARLINK-3820,PAYLOAD,2024-04-28 22:46:29,15.08841112,0.0001371,53.2183,0.505,75.5994,284.515,0.00076455,0.00011901,0.0,0 STARLINK-3820,1 52364U 22045AK  24119.94895265  .00011901  00000-0  76455-3 0  9990,2 52364  53.2183   0.5050 0001371  75.5994 284.5150 15.08841112113309,6917.877,95.437,540.69,538.794,0.0
52364.0,STARLINK-3820,PAYLOAD,2024-04-29 01:57:15,15.08845898,0.0001347,53.2183,359.91,75.5787,284.5354,0.00080219,0.00012504,0.0,0 STARLINK-3820,1 52364U 22045AK  24120.08143196  .00012504  00000-0  80219-3 0  9999,2 52364  53.2183 359.9100 0001347  75.5787 284.5354 15.08845898113322,6917.862,95.437,540.659,538.796,0.0
52364.0,STARLINK-3820,PAYLOAD,2024-04-29 21:01:53,15.08849413,0.0001342,53.2184,356.3409,77.5617,282.5525,0.00044223,6.759e-05,0.0,0 STARLINK-3820,1 52364U 22045AK  24120.87630974  .00006759  00000-0  44223-3 0  9991,2 52364  53.2184 356.3409 0001342  77.5617 282.5525 15.08849413113443,6917.852,95.437,540.645,538.788,0.0
